NORAD_CAT_ID,OBJECT_NAME,OBJECT_TYPE,EPOCH,MEAN_MOTION,ECCENTRICITY,INCLINATION,RA_OF_ASC_NODE,ARG_OF_PERICENTER,MEAN_ANOMALY,BSTAR,MEAN_MOTION_DOT,MEAN_MOTION_DDOT,TLE_LINE0,TLE_LINE1,TLE_LINE2,SEMIMAJOR_AXIS,PERIOD,APOGEE,PERIGEE,DECAYED
52703.0,STARLINK-4020,PAYLOAD,2022-11-29 18:38:00,15.08840588,0.0002483,53.2177,102.7889,61.3475,298.7766,5.8868e-05,6.49e-06,0.0,0 STARLINK-4020,1 52703U 22053AZ  22333.77639255  .00000649  00000-0  58868-4 0  9994,2 52703  53.2177 102.7889 0002483  61.3475 298.7766 15.08840588 29498,6917.879,95.438,541.461,538.026,0.0
52703.0,STARLINK-4020,PAYLOAD,2022-12-01 00:50:20,15.088422199999998,0.0002654,53.2192,97.1374,60.5592,299.5665,3.727800000000001e-05,3.05e-06,0.0,0 STARLINK-4020,1 52703U 22053AZ  22335.03495559  .00000305  00000-0  37278-4 0  9993,2 52703  53.2192  97.1374 0002654  60.5592 299.5665 15.08842220 30531,6917.874,95.437,541.575,537.903,0.0
52703.0,STARLINK-4020,PAYLOAD,2022-12-01 07:11:52,15.08836879,0.000277,53.2183,95.9534,52.1876,307.9367,8.630600000000001e-05,1.085e-05,0.0,0 STARLINK-4020,1 52703U 22053AZ  22335.29991845  .00001085  00000-0  86306-4 0  9992,2 52703  53.2183  95.9534 0002770  52.1876 307.9367 15.08836879 29721,6917.89,95.438,541.6709999999998,537.839,0.0
52703.0,STARLINK-4020,PAYLOAD,2022-12-01 15:08:49,15.08833295,0.0002714,53.2182,94.4655,55.0289,305.0957,3.9658e-05,3.43e-06,0.0,0 STARLINK-4020,1 52703U 22053AZ  22335.63112333  .00000343  00000-0  39658-4 0  9991,2 52703  53.2182  94.4655 0002714  55.0289 305.0957 15.08833295 30620,6917.901,95.438,541.643,537.888,0.0
52703.0,STARLINK-4020,PAYLOAD,2022-12-02 00:41:07,15.088427800000002,0.0002606,53.2183,92.681,57.9672,302.1573,6.5878e-05,7.6e-06,0.0,0 STARLINK-4020,1 52703U 22053AZ  22336.02855675  .00000760  00000-0  65878-4 0  9994,2 52703  53.2183  92.6810 0002606  57.9672 302.1573 15.08842780 30688,6917.871999999999,95.437,541.54,537.934,0.0
52703.0,STARLINK-4020,PAYLOAD,2022-12-02 03:51:53,15.08831499,0.0002315,53.2178,92.0838,54.4546,305.6662,0.0002885,4.305e-05,0.0,0 STARLINK-4020,1 52703U 22053AZ  22336.16103838  .00004305  00000-0  28850-3 0  9993,2 52703  53.2178  92.0838 0002315  54.4546 305.6662 15.08831499 30700,6917.906,95.438,541.373,538.17,0.0
52703.0,STARLINK-4020,PAYLOAD,2022-12-02 16:34:58,15.08841078,0.0002208,53.2208,89.7081,54.7326,305.3872,4.7035e-05,4.6e-06,0.0,0 STARLINK-4020,1 52703U 22053AZ  22336.69095840  .00000460  00000-0  47035-4 0  9999,2 52703  53.2208  89.7081 0002208  54.7326 305.3872 15.08841078 29934,6917.877,95.437,541.27,538.215,0.0
52703.0,STARLINK-4020,PAYLOAD,2022-12-03 00:31:55,15.0883045,0.000264,53.2203,88.2211,48.4521,311.6697,-3.8263e-05,-8.97e-06,0.0,0 STARLINK-4020,1 52703U 22053AZ  22337.02216936 -.00000897  00000-0 -38263-4 0  9997,2 52703  53.2203  88.2211 0002640  48.4521 311.6697 15.08830450 30833,6917.91,95.438,541.601,537.948,0.0
52703.0,STARLINK-4020,PAYLOAD,2022-12-03 13:15:00,15.08835216,0.0002515,53.2203,85.8423,39.1209,320.9965,0.00010274,1.347e-05,0.0,0 STARLINK-4020,1 52703U 22053AZ  22337.55208414  .00001347  00000-0  10274-3 0  9997,2 52703  53.2203  85.8423 0002515  39.1209 320.9965 15.08835216 30063,6917.895,95.438,541.5,538.02,0.0
52703.0,STARLINK-4020,PAYLOAD,2022-12-03 14:50:23,15.08830562,0.0002855,53.2189,85.5463,42.5489,317.5724,-1.2573e-05,-4.89e-06,0.0,0 STARLINK-4020,1 52703U 22053AZ  22337.61833108 -.00000489  00000-0 -12573-4 0  9991,2 52703  53.2189  85.5463 0002855  42.5489 317.5724 15.08830562 30077,6917.909000000002,95.438,541.749,537.799,0.0
52703.0,STARLINK-4020,PAYLOAD,2022-12-04 08:19:38,15.08836786,0.0002572,53.2183,82.2737,50.165,309.9568,-0.00010263,-1.921e-05,0.0,0 STARLINK-4020,1 52703U 22053AZ  22338.34697191 -.00001921  00000-0 -10263-3 0  9997,2 52703  53.2183  82.2737 0002572  50.1650 309.9568 15.08836786 31032,6917.89,95.438,541.534,537.976,0.0
52703.0,STARLINK-4020,PAYLOAD,2022-12-04 14:41:10,15.08838525,0.0002862,53.2193,81.0854,50.218,309.9064,4.6318e-05,4.49e-06,0.0,0 STARLINK-4020,1 52703U 22053AZ  22338.61192871  .00000449  00000-0  46318-4 0  9995,2 52703  53.2193  81.0854 0002862  50.2180 309.9064 15.08838525 30225,6917.885,95.438,541.73,537.77,0.0
52703.0,STARLINK-4020,PAYLOAD,2022-12-05 06:35:01,15.08847324,0.00026,53.219,78.1108,47.2733,312.8478,0.00013903,1.925e-05,0.0,0 STARLINK-4020,1 52703U 22053AZ  22339.27432033  .00001925  00000-0  13903-3 0  9998,2 52703  53.2190  78.1108 0002600  47.2733 312.8478 15.08847324 31175,6917.858,95.437,541.5219999999998,537.924,0.0
52703.0,STARLINK-4020,PAYLOAD,2022-12-05 12:56:33,15.08849401,0.0002616,53.219,76.9214,47.6828,312.4385,0.00015079,2.113e-05,0.0,0 STARLINK-4020,1 52703U 22053AZ  22339.53927815  .00002113  00000-0  15079-3 0  9990,2 52703  53.2190  76.9214 0002616  47.6828 312.4385 15.08849401 30366,6917.852,95.437,541.526,537.9069999999998,0.0
52703.0,STARLINK-4020,PAYLOAD,2022-12-06 00:04:15,15.08843659,0.0002582,53.2186,74.8393,47.181,312.9399,0.00019069,2.748e-05,0.0,0 STARLINK-4020,1 52703U 22053AZ  22340.00296013  .00002748  00000-0  19069-3 0  9990,2 52703  53.2186  74.8393 0002582  47.1810 312.9399 15.08843659 31285,6917.869000000002,95.437,541.52,537.948,0.0
52703.0,STARLINK-4020,PAYLOAD,2022-12-06 12:47:21,15.08835602,0.0002621,53.2211,72.4637,36.791,323.3262,2.9115e-05,1.75e-06,0.0,0 STARLINK-4020,1 52703U 22053AZ  22340.53289010  .00000175  00000-0  29115-4 0  9993,2 52703  53.2211  72.4637 0002621  36.7910 323.3262 15.08835602 30517,6917.894,95.438,541.572,537.946,0.0
52703.0,STARLINK-4020,PAYLOAD,2022-12-06 17:33:31,15.08835605,0.0002377,53.2189,71.5682,43.7197,316.3983,-2.0193e-05,-6.1e-06,0.0,0 STARLINK-4020,1 52703U 22053AZ  22340.73160999 -.00000610  00000-0 -20193-4 0  9992,2 52703  53.2189  71.5682 0002377  43.7197 316.3983 15.08835605 31396,6917.894,95.438,541.403,538.114,0.0
52703.0,STARLINK-4020,PAYLOAD,2022-12-07 15:48:54,15.08839957,0.0002397,53.2188,67.4054,40.286,319.8309,-2.5694e-05,-6.97e-06,0.0,0 STARLINK-4020,1 52703U 22053AZ  22341.65896884 -.00000697  00000-0 -25694-4 0  9999,2 52703  53.2188  67.4054 0002397  40.2860 319.8309 15.08839957 30688,6917.880999999999,95.438,541.404,538.087,0.0
52703.0,STARLINK-4020,PAYLOAD,2022-12-08 12:28:54,15.08850839,0.0002379,53.2185,63.54,39.948,320.1687,0.0003041,4.556e-05,0.0,0 STARLINK-4020,1 52703U 22053AZ  22342.52008047  .00004556  00000-0  30410-3 0  9999,2 52703  53.2185  63.5400 0002379  39.9480 320.1687 15.08850839 30811,6917.847,95.437,541.3580000000002,538.067,0.0
52703.0,STARLINK-4020,PAYLOAD,2022-12-09 05:58:08,15.08858569,0.0002449,53.2187,60.2743,46.0812,314.0382,0.00036521,5.532e-05,0.0,0 STARLINK-4020,1 52703U 22053AZ  22343.24871304  .00005532  00000-0  36521-3 0  9997,2 52703  53.2187  60.2743 0002449  46.0812 314.0382 15.08858569 30927,6917.824000000001,95.436,541.383,537.994,0.0
52703.0,STARLINK-4020,PAYLOAD,2022-12-09 15:30:28,15.08829014,0.0002387,53.218,58.4887,28.1767,331.9354,-0.00010957,-2.031e-05,0.0,0 STARLINK-4020,1 52703U 22053AZ  22343.64616830 -.00002031  00000-0 -10957-3 0  9990,2 52703  53.2180  58.4887 0002387  28.1767 331.9354 15.08829014 31830,6917.9140000000025,95.438,541.43,538.128,0.0
52703.0,STARLINK-4020,PAYLOAD,2022-12-10 10:35:07,15.08817601,0.0002318,53.2193,54.9172,33.5058,326.608,-3.586e-06,-3.45e-06,0.0,0 STARLINK-4020,1 52703U 22053AZ  22344.44106301 -.00000345  00000-0 -35860-5 0  9994,2 52703  53.2193  54.9172 0002318  33.5058 326.6080 15.08817601 31958,6917.949000000001,95.439,541.4169999999998,538.21,0.0
52703.0,STARLINK-4020,PAYLOAD,2022-12-10 12:10:30,15.08824638,0.0002271,53.2194,54.6201,36.6852,323.4295,-0.00014928,-2.662e-05,0.0,0 STARLINK-4020,1 52703U 22053AZ  22344.50729964 -.00002662  00000-0 -14928-3 0  9991,2 52703  53.2194  54.6201 0002271  36.6852 323.4295 15.08824638 31112,6917.927,95.439,541.363,538.221,0.0
52703.0,STARLINK-4020,PAYLOAD,2022-12-10 15:21:16,15.08827388,0.0002327,53.2183,54.0263,32.006,328.1073,-9.6513e-05,-1.824e-05,0.0,0 STARLINK-4020,1 52703U 22053AZ  22344.63977943 -.00001824  00000-0 -96513-4 0  9997,2 52703  53.2183  54.0263 0002327  32.0060 328.1073 15.08827388 31981,6917.919,95.438,541.394,538.174,0.0
52703.0,STARLINK-4020,PAYLOAD,2022-12-11 10:25:54,15.08844574,0.0002377,53.2172,50.4558,35.2249,324.89,0.00075181,0.00011699,0.0,0 STARLINK-4020,1 52703U 22053AZ  22345.43466316  .00011699  00000-0  75181-3 0  9999,2 52703  53.2172  50.4558 0002377  35.2249 324.8900 15.08844574 32108,6917.866,95.437,541.376,538.087,0.0
52703.0,STARLINK-4020,PAYLOAD,2022-12-11 13:36:41,15.08854689,0.0002393,53.2176,49.8619,34.6485,325.4662,0.00098927,0.00015498,0.0,0 STARLINK-4020,1 52703U 22053AZ  22345.56714233  .00015498  00000-0  98927-3 0  9991,2 52703  53.2176  49.8619 0002393  34.6485 325.4662 15.08854689 31272,6917.835,95.437,541.356,538.045,0.0
52703.0,STARLINK-4020,PAYLOAD,2022-12-11 16:47:27,15.08865739,0.0002411,53.2176,49.2673,34.9677,325.1473,0.0011415,0.00017939,0.0,0 STARLINK-4020,1 52703U 22053AZ  22345.69961969  .00017939  00000-0  11415-2 0  9993,2 52703  53.2176  49.2673 0002411  34.9677 325.1473 15.08865739 32145,6917.802,95.436,541.335,537.999,0.0
52703.0,STARLINK-4020,PAYLOAD,2022-12-12 10:16:41,15.08860121,0.0001829,53.2191,45.9954,43.2449,316.8686,0.00053039,8.168e-05,0.0,0 STARLINK-4020,1 52703U 22053AZ  22346.42825495  .00008168  00000-0  53039-3 0  9991,2 52703  53.2191  45.9954 0001829  43.2449 316.8686 15.08860121 32254,6917.819,95.436,540.9490000000002,538.419,0.0
52703.0,STARLINK-4020,PAYLOAD,2022-12-12 11:52:04,15.088583300000002,0.0002182,53.2177,45.6992,30.1008,330.0109,0.0004838,7.424e-05,0.0,0 STARLINK-4020,1 52703U 22053AZ  22346.49449554  .00007424  00000-0  48380-3 0  9993,2 52703  53.2177  45.6992 0002182  30.1008 330.0109 15.08858330 31410,6917.824000000001,95.436,541.1990000000002,538.18,0.0
